IRIDIUM 39              
1 25042U 97069D   25364.06583566  .00001212  00000+0  31033-3 0  9991
2 25042  86.3932 127.2018 0018110  18.7617 341.4251 14.49534388477331
IRIDIUM 38              
1 25043U 97069E   25364.16147587  .00000830  00000+0  26639-3 0  9993
2 25043  86.3983 150.7824 0002970 132.8261 227.3187 14.38333276474129
IRIDIUM 42              
1 25077U 97077A   25363.99128800  .00000753  00000+0  24997-3 0  9995
2 25077  86.3988 157.2631 0002034 114.9892 245.1516 14.36549313469308
IRIDIUM 44              
1 25078U 97077B   25364.11148846  .00000655  00000+0  19985-3 0  9995
2 25078  86.3982 138.6252 0003932  98.2152 261.9493 14.40448081471900
IRIDIUM 45              
1 25104U 97082A   25364.11744402  .00047874  00000+0  13215-2 0  9994
2 25104  86.3544 312.1073 0093359 314.6328  44.7334 15.32516155481931
IRIDIUM 24              
1 25105U 97082B   25364.03813653  .00000818  00000+0  24153-3 0  9992
2 25105  86.3911 357.2107 0012522 141.9221 218.2867 14.42346347471442
IRIDIUM 51              
1 25262U 98018A   25363.92310339  .00143457  00000+0  13204-2 0  9997
2 25262  86.3724 317.3982 0046497 199.0359 160.9174 15.65799211477336
IRIDIUM 57              
1 25273U 98019B   25364.19192347  .00000573  00000+0  19030-3 0  9992
2 25273  86.3942  63.0689 0002261  96.9138 263.2316 14.36065705452913
